[{"OBJECT_NAME":"DONGPO 01","OBJECT_ID":"2022-098K","EPOCH":"2026-03-09T22:32:02.713920","MEAN_MOTION":15.58468183,"ECCENTRICITY":0.00010694,"INCLINATION":97.5448,"RA_OF_ASC_NODE":193.56,"ARG_OF_PERICENTER":224.5163,"MEAN_ANOMALY":135.6007,"EPHEMERIS_TYPE":0,"CLASSIFICATION_TYPE":"U","NORAD_CAT_ID":53453,"ELEMENT_SET_NO":999,"REV_AT_EPOCH":19923,"BSTAR":0.00090167722,"MEAN_MOTION_DOT":0.00069105,"MEAN_MOTION_DDOT":0},{"OBJECT_NAME":"STARLINK-36365","OBJECT_ID":"2026-022U","EPOCH":"2026-03-09T22:00:01.999584","MEAN_MOTION":15.72590104,"ECCENTRICITY":0.00017297,"INCLINATION":97.2853,"RA_OF_ASC_NODE":102.9404,"ARG_OF_PERICENTER":72.788,"MEAN_ANOMALY":45.9093,"EPHEMERIS_TYPE":0,"CLASSIFICATION_TYPE":"U","NORAD_CAT_ID":67666,"ELEMENT_SET_NO":999,"REV_AT_EPOCH":608,"BSTAR":-0.016261278,"MEAN_MOTION_DOT":-0.01889886,"MEAN_MOTION_DDOT":0}]
